<?xml version="1.0" encoding="utf-8"?><kml xmlns:gx="http://www.google.com/kml/ext/2.2" xmlns:kml="http://www.opengis.net/kml/2.2" xmlns:atom="http://www.w3.org/2005/Atom" xmlns="http://www.opengis.net/kml/2.2"><Document><Style id="point1"><IconStyle><Icon><href>kml_symbol_dot_0_t.png</href></Icon></IconStyle></Style><Style id="point2"><IconStyle><Icon><href>kml_symbol_dot_0.png</href></Icon></IconStyle></Style><Style id="0_7"><LineStyle><color>bfFFFFFF</color><width>1</width></LineStyle><PolyStyle><color>bfFFFFFF</color><fill>0</fill><outline>1</outline></PolyStyle></Style><Style id="0_1"><LineStyle><color>bf0000FF</color><width>1</width></LineStyle><PolyStyle><color>bf0000FF</color><fill>0</fill><outline>1</outline></PolyStyle></Style><Style id="0_7"><IconStyle><Icon /></IconStyle><LabelStyle><color>bfFFFFFF</color></LabelStyle></Style><ScreenOverlay><name>Cadomation</name><Icon><href>cadomation_logo.jpg</href></Icon><overlayXY x="0" y="1" xunits="fraction" yunits="fraction" /><screenXY x="0.01" y="0.99" xunits="fraction" yunits="fraction" /></ScreenOverlay><StyleMap id="default"><Pair><key>normal</key><styleUrl>#default0</styleUrl></Pair><Pair><key>highlight</key><styleUrl>#h1</styleUrl></Pair></StyleMap><Style id="default0"><LabelStyle><color>ffffffff</color></LabelStyle><LineStyle><color>ffff5555</color></LineStyle><PolyStyle><fill>0</fill></PolyStyle></Style><Style id="h1"><LabelStyle><color>ffffff00</color></LabelStyle><LineStyle><color>ffff5500</color></LineStyle><PolyStyle><fill>1</fill><color>ffff5500</color></PolyStyle></Style><Folder><name>Point Features</name></Folder><Folder><name>Label Features</name><Placemark><name>29</name><styleUrl>#0_7</styleUrl><Point><coordinates>73.2806649845631,18.3137237407818,0</coordinates></Point></Placemark><Placemark><name>28</name><styleUrl>#0_7</styleUrl><Point><coordinates>73.2826809264121,18.3221204203179,0</coordinates></Point></Placemark><Placemark><name>27</name><styleUrl>#0_7</styleUrl><Point><coordinates>73.2893329736811,18.325942539325,0</coordinates></Point></Placemark><Placemark><name>26</name><styleUrl>#0_7</styleUrl><Point><coordinates>73.2950934801971,18.3282990567249,0</coordinates></Point></Placemark><Placemark><name>25</name><styleUrl>#0_7</styleUrl><Point><coordinates>73.3022219693321,18.3297195677314,0</coordinates></Point></Placemark><Placemark><name>24</name><styleUrl>#0_7</styleUrl><Point><coordinates>73.3100125017909,18.3295420483679,0</coordinates></Point></Placemark><Placemark><name>23</name><styleUrl>#0_7</styleUrl><Point><coordinates>73.3032426458776,18.3394660792029,0</coordinates></Point></Placemark><Placemark><name>22</name><styleUrl>#0_7</styleUrl><Point><coordinates>73.3180678414397,18.3410473266949,0</coordinates></Point></Placemark><Placemark><name>21</name><styleUrl>#0_7</styleUrl><Point><coordinates>73.3132512729222,18.3467558810175,0</coordinates></Point></Placemark><Placemark><name>20</name><styleUrl>#0_7</styleUrl><Point><coordinates>73.3148060330802,18.3524567978717,0</coordinates></Point></Placemark><Placemark><name>19</name><styleUrl>#0_7</styleUrl><Point><coordinates>73.3007149598545,18.3549678456651,0</coordinates></Point></Placemark><Placemark><name>18</name><styleUrl>#0_7</styleUrl><Point><coordinates>73.3090103373655,18.3628861972191,0</coordinates></Point></Placemark><Placemark><name>17</name><styleUrl>#0_7</styleUrl><Point><coordinates>73.2945727556833,18.3620915630669,0</coordinates></Point></Placemark><Placemark><name>16</name><styleUrl>#0_7</styleUrl><Point><coordinates>73.2832637213196,18.3647421624463,0</coordinates></Point></Placemark><Placemark><name>15</name><styleUrl>#0_7</styleUrl><Point><coordinates>73.3097736193391,18.3711975672942,0</coordinates></Point></Placemark><Placemark><name>14</name><styleUrl>#0_7</styleUrl><Point><coordinates>73.2974256579443,18.369187779397,0</coordinates></Point></Placemark><Placemark><name>13</name><styleUrl>#0_7</styleUrl><Point><coordinates>73.2976407253291,18.3753127261955,0</coordinates></Point></Placemark><Placemark><name>12</name><styleUrl>#0_7</styleUrl><Point><coordinates>73.2810166998234,18.3712409953735,0</coordinates></Point></Placemark><Placemark><name>11</name><styleUrl>#0_7</styleUrl><Point><coordinates>73.2807860973003,18.378555000764,0</coordinates></Point></Placemark><Placemark><name>10</name><styleUrl>#0_7</styleUrl><Point><coordinates>73.2943573361504,18.3808509359016,0</coordinates></Point></Placemark><Placemark><name>9</name><styleUrl>#0_7</styleUrl><Point><coordinates>73.3051483423558,18.3837815264476,0</coordinates></Point></Placemark><Placemark><name>8</name><styleUrl>#0_7</styleUrl><Point><coordinates>73.2940817192228,18.3858766058596,0</coordinates></Point></Placemark><Placemark><name>7</name><styleUrl>#0_7</styleUrl><Point><coordinates>73.2936329224632,18.3915019161566,0</coordinates></Point></Placemark><Placemark><name>6</name><styleUrl>#0_7</styleUrl><Point><coordinates>73.2791961135721,18.3854827076002,0</coordinates></Point></Placemark><Placemark><name>5</name><styleUrl>#0_7</styleUrl><Point><coordinates>73.2663461871368,18.3842979059477,0</coordinates></Point></Placemark><Placemark><name>4</name><styleUrl>#0_7</styleUrl><Point><coordinates>73.2707646794603,18.3947569425098,0</coordinates></Point></Placemark><Placemark><name>3</name><styleUrl>#0_7</styleUrl><Point><coordinates>73.2805106332621,18.3929255526781,0</coordinates></Point></Placemark><Placemark><name>2</name><styleUrl>#0_7</styleUrl><Point><coordinates>73.2854128828563,18.4011517505994,0</coordinates></Point></Placemark><Placemark><name>1</name><styleUrl>#0_7</styleUrl><Point><coordinates>73.2932981428843,18.4018680372641,0</coordinates></Point></Placemark></Folder><Folder><name>Line Features</name><Placemark><name /><description>0</description><styleUrl>#0_7</styleUrl><LineString><coordinates>73.2864478276145,18.3166886529508,0 73.2814573752617,18.3170563532106,0 </coordinates></LineString></Placemark><Placemark><name /><description>0</description><styleUrl>#0_7</styleUrl><LineString><coordinates>73.2864478276145,18.3166886529508,0 73.2863667723845,18.3249206860164,0 </coordinates></LineString></Placemark><Placemark><name /><description>0</description><styleUrl>#0_7</styleUrl><LineString><coordinates>73.2919212969089,18.3347832691616,0 73.2920800972483,18.3203454318129,0 </coordinates></LineString></Placemark><Placemark><name /><description>0</description><styleUrl>#0_7</styleUrl><LineString><coordinates>73.2987237713649,18.3236667013427,0 73.2985825592588,18.3358204342834,0 </coordinates></LineString></Placemark><Placemark><name /><description>0</description><styleUrl>#0_7</styleUrl><LineString><coordinates>73.3061877004343,18.3358995716217,0 73.3062626416683,18.3226549635643,0 </coordinates></LineString></Placemark><Placemark><name /><description>0</description><styleUrl>#0_7</styleUrl><LineString><coordinates>73.3115940109378,18.3359579132309,0 73.3114766156975,18.342902646797,0 </coordinates></LineString></Placemark><Placemark><name /><description>0</description><styleUrl>#0_7</styleUrl><LineString><coordinates>73.2958174262556,18.3357911035154,0 73.3115940109378,18.3359579132309,0 </coordinates></LineString></Placemark><Placemark><name /><description>0</description><styleUrl>#0_7</styleUrl><LineString><coordinates>73.3025666214443,18.3427650660396,0 73.3270956359707,18.3431428180624,0 </coordinates></LineString></Placemark><Placemark><name /><description>0</description><styleUrl>#0_7</styleUrl><LineString><coordinates>73.3025226153803,18.3494082903805,0 73.3256712133471,18.3495899284483,0 </coordinates></LineString></Placemark><Placemark><name /><description>0</description><styleUrl>#0_7</styleUrl><LineString><coordinates>73.2955991930701,18.3557905170873,0 73.2992929985922,18.3587180597546,0 </coordinates></LineString></Placemark><Placemark><name /><description>0</description><styleUrl>#0_7</styleUrl><LineString><coordinates>73.3025226153803,18.3494082903805,0 73.3066012310857,18.3540278543133,0 </coordinates></LineString></Placemark><Placemark><name /><description>0</description><styleUrl>#0_7</styleUrl><LineString><coordinates>73.2999046002113,18.3628270497666,0 73.2998726347494,18.3659834538995,0 </coordinates></LineString></Placemark><Placemark><name /><description>0</description><styleUrl>#0_7</styleUrl><LineString><coordinates>73.289009873061,18.3677242428272,0 73.2762938225074,18.3674618886064,0 </coordinates></LineString></Placemark><Placemark><name /><description>0</description><styleUrl>#0_7</styleUrl><LineString><coordinates>73.3064801988774,18.3720163198773,0 73.2885886539398,18.371863465999,0 </coordinates></LineString></Placemark><Placemark><name /><description>0</description><styleUrl>#0_7</styleUrl><LineString><coordinates>73.3064199149978,18.3779877296143,0 73.3065404603202,18.3660449062083,0 </coordinates></LineString></Placemark><Placemark><name /><description>0</description><styleUrl>#0_7</styleUrl><LineString><coordinates>73.2874573759503,18.3829788469643,0 73.3013488602085,18.3831581506983,0 </coordinates></LineString></Placemark><Placemark><name /><description>0</description><styleUrl>#0_7</styleUrl><LineString><coordinates>73.3012975998998,18.388373455475,0 73.2869291702776,18.3881680237634,0 </coordinates></LineString></Placemark><Placemark><name /><description>0</description><styleUrl>#0_7</styleUrl><LineString><coordinates>73.3012975998998,18.388373455475,0 73.3014001034419,18.3779428429285,0 </coordinates></LineString></Placemark><Placemark><name /><description>0</description><styleUrl>#0_7</styleUrl><LineString><coordinates>73.2897005553773,18.4030105250781,0 73.2897778839698,18.3941686859077,0 </coordinates></LineString></Placemark><Placemark><name /><description>0</description><styleUrl>#0_7</styleUrl><LineString><coordinates>73.2752845838963,18.3955978977926,0 73.2753108148133,18.3889508925287,0 </coordinates></LineString></Placemark><Placemark><name /><description>0</description><styleUrl>#0_7</styleUrl><LineString><coordinates>73.2745572263556,18.3820210920541,0 73.2875469614289,18.3820986999541,0 </coordinates></LineString></Placemark><Placemark><name /><description>0</description><styleUrl>#0_7</styleUrl><LineString><coordinates>73.2707343527286,18.3820059923723,0 73.2707068544846,18.3889342851464,0 </coordinates></LineString></Placemark><Placemark><name /><description>0</description><styleUrl>#0_7</styleUrl><LineString><coordinates>73.2891970730542,18.3658845791345,0 73.3162931281718,18.3661343686592,0 </coordinates></LineString></Placemark><Placemark><name /><description>0</description><styleUrl>#0_7</styleUrl><LineString><coordinates>73.2879822235272,18.3778222115018,0 73.3064594363161,18.3779880824848,0 </coordinates></LineString></Placemark><Placemark><name /><description>0</description><styleUrl>#0_7</styleUrl><LineString><coordinates>73.2863377304061,18.3939778852382,0 73.2961321016444,18.3945209447927,0 </coordinates></LineString></Placemark><Placemark><name /><description>0</description><styleUrl>#0_7</styleUrl><LineString><coordinates>73.2738916598849,18.3742965593798,0 73.2883242653481,18.3744614044545,0 </coordinates></LineString></Placemark><Placemark><name /><description>0</description><styleUrl>#0_7</styleUrl><LineString><coordinates>73.2652175188986,18.3889143383462,0 73.2868452925585,18.388992010134,0 </coordinates></LineString></Placemark><Placemark><name /><description>0</description><styleUrl>#0_7</styleUrl><LineString><coordinates>73.2863377304061,18.3939778852382,0 73.2898790048712,18.3591825739078,0 </coordinates></LineString></Placemark></Folder><Folder><name>Area Features</name><Placemark><name /><description>0</description><styleUrl>#0_1</styleUrl><Polygon><outerBoundaryIs><LinearRing><coordinates>73.2790958965771,18.333086125746,0 73.2784476685798,18.3324486090388,0 73.2769228880599,18.3257022160839,0 73.278010755176,18.325391632059,0 73.2810422661293,18.3249545264645,0 73.2812960497798,18.322628903755,0 73.2775877336505,18.3207553783169,0 73.2814573752617,18.3170563532106,0 73.2795384437928,18.3179314426558,0 73.2756232830055,18.3167758778822,0 73.2742283135511,18.3157900869765,0 73.2754169589518,18.3132407035387,0 73.2769640739789,18.3101036989253,0 73.2788826676745,18.3081511219971,0 73.2818293664063,18.3078726337946,0 73.2844519054,18.311643510102,0 73.2858133011109,18.3123978497769,0 73.2865790778233,18.3148810504498,0 73.2864478276145,18.3166886529508,0 73.2877451523171,18.3190484636562,0 73.289449921557,18.320175114676,0 73.291407924335,18.3203746318297,0 73.2947319380364,18.3202302092937,0 73.2952550385671,18.3222146062007,0 73.2965600163245,18.3238832892853,0 73.2986674136733,18.3236717252159,0 73.3018888988899,18.3233845261058,0 73.3047105273054,18.3239646164918,0 73.3062247127381,18.3226620770154,0 73.3084824392564,18.3222386331433,0 73.3103948572035,18.3233896005943,0 73.3119167771841,18.3233935003762,0 73.3146976387424,18.3244142478002,0 73.3150068874775,18.3268090925569,0 73.3149507716607,18.3268935926101,0 73.3140153050812,18.3281152875634,0 73.3140147782976,18.3281444256213,0 73.3147228512429,18.3295656678394,0 73.3156684281218,18.332142954957,0 73.3144812681785,18.3330740338501,0 73.3129137531394,18.334218981665,0 73.3116880137398,18.3355800616589,0 73.3115710040663,18.3373190865636,0 73.3117138553963,18.3389478829347,0 73.3129326703149,18.339364695698,0 73.3151204264592,18.3394898226921,0 73.3171895170182,18.3384018628933,0 73.3172455600528,18.3383732547233,0 73.3189114601705,18.3372291754101,0 73.3189673826738,18.3372032170931,0 73.3211208705877,18.3371050078075,0 73.3230277051846,18.3379640619093,0 73.3243806017581,18.3392116606785,0 73.3243868243243,18.3392757053191,0 73.3259000599719,18.3413021343844,0 73.3260613758166,18.3415329841977,0 73.3274917545059,18.343759370889,0 73.3268389223156,18.3452081311083,0 73.3268838753128,18.3488602154168,0 73.3249419252571,18.3500287667916,0 73.3247560197722,18.3534122953987,0 73.3225454780445,18.3532840989237,0 73.3207304580559,18.3560210622648,0 73.316727007023,18.3581538083893,0 73.3163142586502,18.3549243710689,0 73.3140851966743,18.3550859500335,0 73.3125986925818,18.3536877918582,0 73.3125241488022,18.3537194376972,0 73.309856802134,18.354104259254,0 73.309447085858,18.354152480092,0 73.3066012310857,18.3540278543133,0 73.3078420690362,18.3558122598286,0 73.3068253396062,18.3573167698107,0 73.3070233406316,18.3590206724318,0 73.3058881365107,18.3603023579031,0 73.304233071466,18.360060273161,0 73.3021641979171,18.360441821715,0 73.299833394461,18.3595032795465,0 73.2992929985922,18.3587180597546,0 73.29927109977,18.3589152005997,0 73.2988698132862,18.3620351923947,0 73.2999046002113,18.3628270497666,0 73.3026667450711,18.3622567501017,0 73.3051411913973,18.3609322500983,0 73.3075383575462,18.3600062329932,0 73.3090418527221,18.3579662650926,0 73.3125089460525,18.3574122605333,0 73.3125783745452,18.3575268222567,0 73.3149112981723,18.3595440203628,0 73.3141852374761,18.3605916188284,0 73.3158787888028,18.3621857186514,0 73.3162678741507,18.3631309369908,0 73.3166355054018,18.3649563593017,0 73.3162931281718,18.3661343686592,0 73.3137658906795,18.3698541272497,0 73.3136248042091,18.3724464044152,0 73.3143048217918,18.3741474891232,0 73.3120128400118,18.3741508519871,0 73.3099920310458,18.37443256487,0 73.3112115327865,18.376071256422,0 73.3099653492762,18.3778151661641,0 73.3082306575897,18.3778208248935,0 73.3079697620049,18.376768651424,0 73.3066034981355,18.3773427853848,0 73.3061895649771,18.3791969030062,0 73.3071450189699,18.379975072171,0 73.3087853166399,18.3807356212735,0 73.3101638938392,18.3828681218292,0 73.3110126816929,18.3844777540852,0 73.3080827976636,18.3887815825467,0 73.3061720684997,18.3867033353349,0 73.3061683905806,18.3867756870354,0 73.304440570001,18.3894162375325,0 73.3012975998998,18.388373455475,0 73.3017923495527,18.3914622344781,0 73.2977896385705,18.3935138937177,0 73.2961321016444,18.3945209447927,0 73.2977202287632,18.395637481382,0 73.2992415003244,18.3960773206822,0 73.2987210789401,18.4051653280682,0 73.2979038191972,18.4077277772966,0 73.2955294838635,18.4091342671864,0 73.2934159989813,18.4093456628997,0 73.2906513553486,18.407664483882,0 73.2897320428605,18.4060134732021,0 73.2897005553773,18.4030105250781,0 73.2874152080584,18.4036656037369,0 73.2854863110787,18.4053119269332,0 73.2813573695756,18.404885684567,0 73.2808559189394,18.401227450832,0 73.2819611054704,18.399047828137,0 73.2843255212371,18.398417130176,0 73.2865664790467,18.3971602587051,0 73.2865806002901,18.395402018322,0 73.2863377304061,18.3939778852382,0 73.283438936622,18.3961487238319,0 73.2806011072403,18.397035910136,0 73.2772070063883,18.3955775093761,0 73.275273566582,18.3955980145815,0 73.2749967407049,18.3994379786674,0 73.2756874332951,18.4036374829588,0 73.2740560906651,18.4036953811188,0 73.2735947999809,18.4021758224277,0 73.2700068494611,18.4012917099022,0 73.26754169177,18.4022744327325,0 73.265957949673,18.4021744741516,0 73.2648704465883,18.3995000512576,0 73.266630540902,18.3983792620446,0 73.2674684604501,18.3952141789033,0 73.2663680463381,18.395373555805,0 73.2652175188986,18.3889143383462,0 73.2626966288721,18.3889051249954,0 73.2605542009099,18.388664962627,0 73.2614287531868,18.3862451908038,0 73.2622647080139,18.3859619625597,0 73.2626406851434,18.3837791807746,0 73.2651329390712,18.3785415402977,0 73.2695385028851,18.3764445182466,0 73.2695207702814,18.376603859955,0 73.2696590641139,18.3817655386951,0 73.2686470345934,18.3823405415445,0 73.2728216648266,18.3816714196086,0 73.2745572263556,18.3820210920541,0 73.2746099735211,18.3782549862139,0 73.2745655568645,18.3781425604789,0 73.2738916598849,18.3742965593798,0 73.2775780066539,18.3638078407486,0 73.2811232970839,18.3626711688102,0 73.2855241933858,18.3597777926618,0 73.2898790048712,18.3591825739078,0 73.2913364506755,18.3575488439185,0 73.2955991930701,18.3557905170873,0 73.2935631467053,18.3535049321628,0 73.2936328493527,18.3534444592369,0 73.2949307040626,18.3495529499309,0 73.2996670299026,18.3500971293734,0 73.3025226153803,18.3494082903805,0 73.3025078497723,18.3459701229267,0 73.3025017472685,18.3458415610441,0 73.3025666214443,18.3427650660396,0 73.2992861275183,18.3407873852694,0 73.2988357125635,18.3407518436731,0 73.2986427998299,18.3407364865463,0 73.2943932214747,18.3404609852286,0 73.2941193419759,18.3372440263042,0 73.2957589983633,18.3360769702501,0 73.2958179116416,18.3358463837598,0 73.2958173977464,18.3357878566309,0 73.2942419745507,18.3349060327281,0 73.2941164320426,18.3348961243912,0 73.2897261668928,18.3346703888791,0 73.2895342622694,18.3346533292195,0 73.2892272941219,18.3345748170135,0 73.2866387211752,18.326511295993,0 73.2867046247534,18.3248569718929,0 73.2839262822375,18.3253809080493,0 73.2824699872762,18.3264657194568,0 73.2825014418075,18.3294468354895,0 73.280727422862,18.3321263056261,0 73.2790958965771,18.333086125746,0 </coordinates></LinearRing></outerBoundaryIs></Polygon></Placemark></Folder><Folder><name>Hatch Fill Features</name></Folder></Document></kml>